STARLINK-1533           
1 46069U 20055AU  24158.09441008  .00002520  00000+0  18793-3 0  9992
2 46069  53.0548  96.8488 0001474  85.5790 274.5368 15.06414590212077
STARLINK-1536           
1 46070U 20055AV  24157.84377193  .00001293  00000+0  10567-3 0  9996
2 46070  53.0567  97.9715 0001450  94.0674 266.0480 15.06411729212033
STARLINK-1538           
1 46071U 20055AW  24157.86220022  .00002281  00000+0  17193-3 0  9997
2 46071  53.0545  97.8872 0001521  88.6416 271.4747 15.06410532212032
STARLINK-1539           
1 46072U 20055AX  24158.15184095  .00000864  00000+0  11984-4 0  9998
2 46072  53.0539  66.6893 0000775 103.7806 256.3297 15.69714428212486
STARLINK-1542           
1 46073U 20055AY  24158.10178234  .00001115  00000+0  93707-4 0  9995
2 46073  53.0557  96.8124 0001355  88.3279 271.7865 15.06418220212075
STARLINK-1549           
1 46074U 20055AZ  24158.15338769  .00001132  00000+0  94855-4 0  9996
2 46074  53.0556  96.5847 0001576  92.8736 267.2433 15.06408934212080
STARLINK-1551           
1 46075U 20055BA  24158.11283978  .00002226  00000+0  16820-3 0  9994
2 46075  53.0562  96.7654 0001452  88.2134 271.9021 15.06413446212078
STARLINK-1552           
1 46076U 20055BB  24158.13864408  .00001275  00000+0  10445-3 0  9990
2 46076  53.0564  96.6502 0001788  94.1652 265.9541 15.06416792212072
STARLINK-1559           
1 46077U 20055BC  24157.85482533  .00001234  00000+0  10169-3 0  9992
2 46077  53.0568  97.9222 0001421  95.0497 265.0654 15.06414773212030
STARLINK-1563           
1 46078U 20055BD  24158.09809691  .00002164  00000+0  16408-3 0  9993
2 46078  53.0547  96.8316 0001470  86.3015 273.8142 15.06416242212079
STARLINK-1566           
1 46079U 20055BE  24158.09072688  .00000931  00000+0  81354-4 0  9995
2 46079  53.0550  96.8636 0001462  94.5860 265.5296 15.06407170212077
STARLINK-1568           
1 46080U 20055BF  24158.14236457  .00001681  00000+0  13168-3 0  9999
2 46080  53.0552  96.9034 0001656  94.1248 265.9931 15.06409053212077
STARLINK-1571           
1 46081U 20055BG  24158.14970276  .00002102  00000+0  15990-3 0  9998
2 46081  53.0556  96.6057 0001573  96.7292 263.3876 15.06409194212075
STARLINK-1578           
1 46082U 20055BH  24157.84007988  .00002015  00000+0  15409-3 0  9994
2 46082  53.0557  97.9882 0001396  92.7922 267.3227 15.06409022212036
STARLINK-1579           
1 46083U 20055BJ  24157.54427370  .00004155  00000+0  29761-3 0  9996
2 46083  53.0544  99.3079 0001603  84.1650 275.9522 15.06405489211980
STARLINK-1585           
1 46117U 20057A   24158.10919416  .00001814  00000+0  14076-3 0  9998
2 46117  53.0553 296.7817 0006238  84.5896 275.5804 15.06384248210310
STARLINK-1588           
1 46118U 20057B   24157.85299863 -.00000090  00000+0  12841-4 0  9992
2 46118  53.0547 317.9309 0001291  96.8603 263.2533 15.06393877210605
STARLINK-1593           
1 46119U 20057C   24158.14053946  .00014583  00000+0  99597-3 0  9999
2 46119  53.0549 316.9881 0001303  97.1242 262.9895 15.06397349210020
STARLINK-1601           
1 46120U 20057D   24157.82718890  .00001141  00000+0  95506-4 0  9994
2 46120  53.0556 318.0475 0001165 105.2012 254.9106 15.06396775210606
STARLINK-1602           
1 46121U 20057E   24157.79585662  .00002706  00000+0  20057-3 0  9996
2 46121  53.0542 298.1855 0001255 114.9316 245.1804 15.06388200210269
STARLINK-1604           
1 46122U 20057F   24157.73872867  .00000588  00000+0  58398-4 0  9993
2 46122  53.0520 278.4424 0001563 105.5136 254.6026 15.06385141211125
STARLINK-1605           
1 46123U 20057G   24158.05570717  .00016767  00000+0  11416-2 0  9993
2 46123  53.0576 277.0189 0001380 127.5324 232.5791 15.06408383210576
STARLINK-1614           
1 46124U 20057H   24157.73136923  .00022983  00000+0  15585-2 0  9993
2 46124  53.0533 278.4792 0001427  68.3061 291.8080 15.06358849209878
STARLINK-1618           
1 46125U 20057J   24157.84563096  .00000293  00000+0  38556-4 0  9996
2 46125  53.0479 317.9635 0001205  93.4424 266.6703 15.06390375209983
STARLINK-1619           
1 46126U 20057K   24158.13610749  .00058029  00000+0  28411-2 0  9995
2 46126  53.0536 310.9400 0001338 132.6563 227.4543 15.17642115210116
STARLINK-1621           
1 46127U 20057L   24157.67790269 -.00004253  00000+0 -26693-3 0  9993
2 46127  53.0545 298.7169 0000712  99.1890 260.9179 15.06385161209575
STARLINK-1622           
1 46128U 20057M   24157.70555927 -.00002725  00000+0 -16417-3 0  9993
2 46128  53.0545 278.5945 0001176  69.9783 290.1332 15.06386203209861
STARLINK-1623           
1 46129U 20057N   24157.61341753 -.00002708  00000+0 -16296-3 0  9990
2 46129  53.0536 279.0055 0001178 102.2594 257.8527 15.06401583210512
STARLINK-1624           
1 46130U 20057P   24157.71292443  .00001110  00000+0  93425-4 0  9998
2 46130  53.0536 278.5605 0001311  76.8375 283.2760 15.06385084211117
STARLINK-1625           
1 46131U 20057Q   24157.79217629 -.00004398  00000+0 -27661-3 0  9991
2 46131  53.0511 298.2032 0001227  91.7273 268.3856 15.06391157210851
STARLINK-1630           
1 46132U 20057R   24157.83087773 -.00004575  00000+0 -28850-3 0  9990
2 46132  53.0542 318.0293 0001876  76.8275 283.2923 15.06388240209984
STARLINK-1637           
1 46133U 20057S   24157.63182752  .00002236  00000+0  16894-3 0  9997
2 46133  53.0541 278.9263 0001103 109.1857 250.9252 15.06395952211105
STARLINK-1639           
1 46135U 20057U   24157.71660596  .00002622  00000+0  19489-3 0  9997
2 46135  53.0542 278.5452 0001157 107.6272 252.4844 15.06388063209866
STARLINK-1643           
1 46136U 20057V   24157.43740418  .00003811  00000+0  27456-3 0  9993
2 46136  53.0535 309.8339 0000652  30.0284 330.0742 15.06405961209409
STARLINK-1586           
1 46137U 20057W   24158.11654291 -.00001207  00000+0 -62178-4 0  9993
2 46137  53.0522 296.7453 0001916 104.4365 255.6837 15.06392083210316
STARLINK-1590           
1 46138U 20057X   24157.82283019  .00057667  00000+0  28283-2 0  9993
2 46138  53.0540 312.9281 0000427 169.5895 190.5108 15.17583880210051
STARLINK-1594           
1 46140U 20057Z   24157.87510580  .00011089  00000+0  76231-3 0  9992
2 46140  53.0544 277.8310 0001504 103.8256 256.2900 15.06392513210553
STARLINK-1596           
1 46141U 20057AA  24158.05203925 -.00003236  00000+0 -19860-3 0  9998
2 46141  53.0532 277.0376 0001200  73.6943 286.4177 15.06379079210570
STARLINK-1597           
1 46142U 20057AB  24157.87142165 -.00003156  00000+0 -19312-3 0  9999
2 46142  53.0551 317.8492 0001062  81.5229 278.5880 15.06389681209981
STARLINK-1606           
1 46144U 20057AD  24158.10178861 -.00000556  00000+0 -18447-4 0  9990
2 46144  53.0572 296.8151 0001237  75.1442 284.9684 15.06389037210311
STARLINK-1608           
1 46146U 20057AF  24157.81613248 -.00005124  00000+0 -32544-3 0  9991
2 46146  53.0525 318.0976 0000871  44.8964 315.2096 15.06387640209982
STARLINK-1611           
1 46147U 20057AG  24157.73136131 -.00003214  00000+0 -19705-3 0  9996
2 46147  53.0547 318.4758 0000668  89.8836 270.2230 15.06387948210567
STARLINK-1616           
1 46148U 20057AH  24157.67053675 -.00003223  00000+0 -19756-3 0  9997
2 46148  53.0581 298.7493 0002150 100.2106 259.9126 15.06395638209570
STARLINK-1629           
1 46150U 20057AK  24158.14418013 -.00001710  00000+0 -95970-4 0  9996
2 46150  53.0568 316.6306 0001417  83.5168 276.5982 15.06392220210039
STARLINK-1631           
1 46151U 20057AL  24157.78849221 -.00004980  00000+0 -31580-3 0  9993
2 46151  53.0511 298.2195 0001312 101.4559 258.6577 15.06381480210258
STARLINK-1634           
1 46152U 20057AM  24158.25001157  .00840525  00000+0  29746-1 0  9995
2 46152  53.0530 315.3762 0001100  88.6280  23.8625 15.26373140210053
STARLINK-1636           
1 46153U 20057AN  24157.67421906 -.00003785  00000+0 -23541-3 0  9999
2 46153  53.0533 298.7324 0001223  71.5764 288.5358 15.06389850209570
STARLINK-1642           
1 46154U 20057AP  24157.68437087 -.00000810  00000+0 -35483-4 0  9993
2 46154  53.0503 308.6869 0001325 102.4555 257.6582 15.06399393209443
STARLINK-1667           
1 46155U 20057AQ  24158.04097795  .00022211  00000+0  15058-2 0  9994
2 46155  53.0560 277.0900 0001143  70.1378 289.9734 15.06388298210579
STARLINK-1545           
1 46156U 20057AR  24157.83271860 -.00003027  00000+0 -18447-3 0  9990
2 46156  53.0576 298.0222 0001298  67.5357 292.5770 15.06384287210850
STARLINK-1587           
1 46157U 20057AS  24157.62078366 -.00000815  00000+0 -35839-4 0  9991
2 46157  53.0528 278.9721 0001350  88.6585 271.4559 15.06385659210513
STARLINK-1589           
1 46158U 20057AT  24157.91668981  .00345260  00000+0  12111-2 0  9992
2 46158  53.0474 237.9940 0013161 352.4062  37.8958 15.87676683211109
STARLINK-1595           
1 46159U 20057AU  24157.45859452 -.00001955  00000+0 -11239-3 0  9990
2 46159  53.0532 319.7010 0001612  98.9449 261.1723 15.06397094210525
STARLINK-1598           
1 46160U 20057AV  24157.78111340 -.00000515  00000+0 -15732-4 0  9999
2 46160  53.0502 298.2515 0001143  76.1923 283.9193 15.06380093210848
STARLINK-1600           
1 46161U 20057AW  24157.82535074 -.00005867  00000+0 -37551-3 0  9996
2 46161  53.0543 298.0561 0000763  26.9426 333.1603 15.06382916210852
STARLINK-1603           
1 46162U 20057AX  24158.09441994 -.00000915  00000+0 -42567-4 0  9997
2 46162  53.0497 296.8486 0001036  76.6125 283.4980 15.06391111210318
STARLINK-1610           
1 46163U 20057AY  24157.49545135  .00005487  00000+0  38721-3 0  9996
2 46163  53.0551 279.5377 0001313 114.3543 245.7583 15.06376287209831
STARLINK-1612           
1 46164U 20057AZ  24157.62445764  .00013091  00000+0  89663-3 0  9990
2 46164  53.0549 278.9576 0000826 101.8491 258.2591 15.06377061211117
STARLINK-1615           
1 46166U 20057BB  24158.25001157  .00329903  00000+0  15331-2 0  9998
2 46166  53.0462 283.2986 0009085 328.3599 281.6247 15.81911985210500
